0 COSMOS 82
1 01572U 65070C   13282.68108211 -.00000101  00000-0 -46742-4 0   134
2 01572 056.0610 047.6983 0076864 188.6645 271.8156 12.45069858187634
0 COSMOS 82
1 01572U 65070C   13285.48507714 -.00000110  00000-0 -10795-3 0   145
2 01572 056.0616 040.2009 0076742 192.4515 239.9786 12.45069924187988
0 COSMOS 82
1 01572U 65070C   13287.49757438 -.00000089  00000-0  32040-4 0   151
2 01572 056.0620 034.8202 0076673 195.1904 260.4434 12.45069681188230
0 COSMOS 82
1 01572U 65070C   13289.58515895 -.00000071  00000-0  16181-3 0   161
2 01572 056.0620 029.2388 0076572 198.0113 257.4850 12.45069575188493
0 COSMOS 82
1 01572U 65070C   13291.59727804 -.00000080  00000-0  99058-4 0   176
2 01572 056.0620 023.8590 0076488 200.7297 276.2714 12.45069626188741
0 COSMOS 82
1 01572U 65070C   13293.69586295 -.00000084  00000-0  67026-4 0   181
2 01572 056.0618 018.2479 0076396 203.5718 322.6119 12.45069817189006
0 COSMOS 82
1 01572U 65070C   13296.15166615 -.00000092  00000-0  12407-4 0   198
2 01572 056.0616 011.6816 0076298 206.8875 170.0985 12.45069940189314
